{
    "links": {
        "self": "http://www.neowsapp.com/rest/v1/neo/3830505?api_key=iIulBulltgU6a56xZRHN4H3l9WmuAYTsLGpBGhQ2"
    },
    "id": "3830505",
    "neo_reference_id": "3830505",
    "name": "(2018 SL)",
    "designation": "2018 SL",
    "nasa_jpl_url": "http://ssd.jpl.nasa.gov/sbdb.cgi?sstr=3830505",
    "absolute_magnitude_h": 23.9,
    "estimated_diameter": {
        "kilometers": {
            "estimated_diameter_min": 0.04411182,
            "estimated_diameter_max": 0.0986370281
        },
        "meters": {
            "estimated_diameter_min": 44.1118199997,
            "estimated_diameter_max": 98.6370281305
        },
        "miles": {
            "estimated_diameter_min": 0.0274098057,
            "estimated_diameter_max": 0.0612901888
        },
        "feet": {
            "estimated_diameter_min": 144.7238235278,
            "estimated_diameter_max": 323.6123073718
        }
    },
    "is_potentially_hazardous_asteroid": false,
    "close_approach_data": [
        {
            "close_approach_date": "2018-09-10",
            "close_approach_date_full": "2018-Sep-10 20:44",
            "epoch_date_close_approach": 1536612240000,
            "relative_velocity": {
                "kilometers_per_second": "21.6889271238",
                "kilometers_per_hour": "78080.1376455346",
                "miles_per_hour": "48515.9610831378"
            },
            "miss_distance": {
                "astronomical": "0.1382645724",
                "lunar": "53.7849186636",
                "kilometers": "20684085.527500788",
                "miles": "12852494.7686873544"
            },
            "orbiting_body": "Earth"
        }
    ],
    "orbital_data": {
        "orbit_id": "1",
        "orbit_determination_date": "2018-09-18 09:12:11",
        "first_observation_date": "2018-09-16",
        "last_observation_date": "2018-09-18",
        "data_arc_in_days": 2,
        "observations_used": 14,
        "orbit_uncertainty": "9",
        "minimum_orbit_intersection": ".134661",
        "jupiter_tisserand_invariant": "4.181",
        "epoch_osculation": "2458378.5",
        "eccentricity": ".2805962044745566",
        "semi_major_axis": "1.530868645551621",
        "inclination": "41.33665647510623",
        "ascending_node_longitude": "170.3415705908861",
        "orbital_period": "691.839444290344",
        "perihelion_distance": "1.101312714060731",
        "perihelion_argument": "146.076165268067",
        "aphelion_distance": "1.960424577042511",
        "perihelion_time": "2458337.619919953999",
        "mean_anomaly": "21.27202913626323",
        "mean_motion": ".5203519443290355",
        "equinox": "J2000",
        "orbit_class": {
            "orbit_class_type": "AMO",
            "orbit_class_description": "Near-Earth asteroid orbits similar to that of 1221 Amor",
            "orbit_class_range": "1.017 AU < q (perihelion) < 1.3 AU"
        }
    },
    "is_sentry_object": false
}